[
    {
        "Altitude(m)": 612502.2331438593,
        "Argument of Periapsis(deg)": 0.0,
        "Eccentricity": 0.0,
        "Inclination(deg)": 60.0,
        "Latitude(deg)": -28.13609783042193,
        "Longitude(deg)": -17.85170144027835,
        "Mean Anomaly(deg)": -32.72730000000003,
        "RAAN(deg)": 100.0,
        "Satellite Name": "Test1 460",
        "Satellite Number": 460,
        "Semi-Major Axis(m)": 6980739.136638005,
        "Time(s)": 0
    },
    {
        "Altitude(m)": 612308.6803889058,
        "Argument of Periapsis(deg)": 0.00010418945913296404,
        "Eccentricity": 0.0,
        "Inclination(deg)": 60.0,
        "Latitude(deg)": -27.623152571506825,
        "Longitude(deg)": -17.49822794691451,
        "Mean Anomaly(deg)": -32.10719385453813,
        "RAAN(deg)": 99.99957995086025,
        "Satellite Name": "Test1 460",
        "Satellite Number": 460,
        "Semi-Major Axis(m)": 6980739.136638005,
        "Time(s)": 10
    },
    {
        "Altitude(m)": 612116.0965312986,
        "Argument of Periapsis(deg)": 0.0002083789182659281,
        "Eccentricity": 0.0,
        "Inclination(deg)": 60.0,
        "Latitude(deg)": -27.10903845218213,
        "Longitude(deg)": -17.148405626374792,
        "Mean Anomaly(deg)": -31.487087709076345,
        "RAAN(deg)": 99.99915990172052,
        "Satellite Name": "Test1 460",
        "Satellite Number": 460,
        "Semi-Major Axis(m)": 6980739.136638005,
        "Time(s)": 20
    },
    {
        "Altitude(m)": 611924.5511579199,
        "Argument of Periapsis(deg)": 0.00031256837739889213,
        "Eccentricity": 0.0,
        "Inclination(deg)": 60.0,
        "Latitude(deg)": -26.593789787856892,
        "Longitude(deg)": -16.802130061719904,
        "Mean Anomaly(deg)": -30.866981563614505,
        "RAAN(deg)": 99.99873985258077,
        "Satellite Name": "Test1 460",
        "Satellite Number": 460,
        "Semi-Major Axis(m)": 6980739.136638005,
        "Time(s)": 30
    },
    {
        "Altitude(m)": 611734.113249038,
        "Argument of Periapsis(deg)": 0.0004167578365318562,
        "Eccentricity": 0.0,
        "Inclination(deg)": 60.0,
        "Latitude(deg)": -26.077440044591842,
        "Longitude(deg)": -16.459298553629377,
        "Mean Anomaly(deg)": -30.246875418152715,
        "RAAN(deg)": 99.99831980344103,
        "Satellite Name": "Test1 460",
        "Satellite Number": 460,
        "Semi-Major Axis(m)": 6980739.136638005,
        "Time(s)": 40
    },
    {
        "Altitude(m)": 611544.8511478043,
        "Argument of Periapsis(deg)": 0.0005209472956648203,
        "Eccentricity": 0.0,
        "Inclination(deg)": 60.0,
        "Latitude(deg)": -25.56002187150319,
        "Longitude(deg)": -16.119811065141395,
        "Mean Anomaly(deg)": -29.626769272690876,
        "RAAN(deg)": 99.99789975430129,
        "Satellite Name": "Test1 460",
        "Satellite Number": 460,
        "Semi-Major Axis(m)": 6980739.136638005,
        "Time(s)": 50
    },
    {
        "Altitude(m)": 611356.8325300225,
        "Argument of Periapsis(deg)": 0.0006251367547977843,
        "Eccentricity": 0.0,
        "Inclination(deg)": 60.0,
        "Latitude(deg)": -25.041567132060372,
        "Longitude(deg)": -15.783569654272487,
        "Mean Anomaly(deg)": -29.006663127229036,
        "RAAN(deg)": 99.99747970516155,
        "Satellite Name": "Test1 460",
        "Satellite Number": 460,
        "Semi-Major Axis(m)": 6980739.136638005,
        "Time(s)": 60
    },
    {
        "Altitude(m)": 611170.124374228,
        "Argument of Periapsis(deg)": 0.0007293262139307483,
        "Eccentricity": 0.0,
        "Inclination(deg)": 60.0,
        "Latitude(deg)": -24.522106934317737,
        "Longitude(deg)": -15.450477907450178,
        "Mean Anomaly(deg)": -28.386556981767193,
        "RAAN(deg)": 99.9970596560218,
        "Satellite Name": "Test1 460",
        "Satellite Number": 460,
        "Semi-Major Axis(m)": 6980739.136638005,
        "Time(s)": 70
    },
    {
        "Altitude(m)": 610984.7929320585,
        "Argument of Periapsis(deg)": 0.0008335156730637124,
        "Eccentricity": 0.0,
        "Inclination(deg)": 60.0,
        "Latitude(deg)": -24.00167166012012,
        "Longitude(deg)": -15.120441886683196,
        "Mean Anomaly(deg)": -27.766450836305403,
        "RAAN(deg)": 99.99663960688206,
        "Satellite Name": "Test1 460",
        "Satellite Number": 460,
        "Semi-Major Axis(m)": 6980739.136638005,
        "Time(s)": 80
    },
    {
        "Altitude(m)": 610800.903698979,
        "Argument of Periapsis(deg)": 0.0009377051321966765,
        "Eccentricity": 0.0,
        "Inclination(deg)": 60.0,
        "Latitude(deg)": -23.4802909933138,
        "Longitude(deg)": -14.79336956476354,
        "Mean Anomaly(deg)": -27.14634469084351,
        "RAAN(deg)": 99.99621955774232,
        "Satellite Name": "Test1 460",
        "Satellite Number": 460,
        "Semi-Major Axis(m)": 6980739.136638005,
        "Time(s)": 90
    },
    {
        "Altitude(m)": 610618.5213853493,
        "Argument of Periapsis(deg)": 0.0010418945913296407,
        "Eccentricity": 0.0,
        "Inclination(deg)": 60.0,
        "Latitude(deg)": -22.957993947002514,
        "Longitude(deg)": -14.469170261406603,
        "Mean Anomaly(deg)": -26.52623854538166,
        "RAAN(deg)": 99.99579950860257,
        "Satellite Name": "Test1 460",
        "Satellite Number": 460,
        "Semi-Major Axis(m)": 6980739.136638005,
        "Time(s)": 100
    },
    {
        "Altitude(m)": 610437.7098878371,
        "Argument of Periapsis(deg)": 0.0011460840504626045,
        "Eccentricity": 0.0,
        "Inclination(deg)": 60.0,
        "Latitude(deg)": -22.434808889884454,
        "Longitude(deg)": -14.147755593229759,
        "Mean Anomaly(deg)": -25.90613239991987,
        "RAAN(deg)": 99.99537945946282,
        "Satellite Name": "Test1 460",
        "Satellite Number": 460,
        "Semi-Major Axis(m)": 6980739.136638005,
        "Time(s)": 110
    },
    {
        "Altitude(m)": 610258.5322612205,
        "Argument of Periapsis(deg)": 0.0012502735095955685,
        "Eccentricity": 0.0,
        "Inclination(deg)": 60.0,
        "Latitude(deg)": -21.910763571701224,
        "Longitude(deg)": -13.829038911840696,
        "Mean Anomaly(deg)": -25.28602625445803,
        "RAAN(deg)": 99.99495941032309,
        "Satellite Name": "Test1 460",
        "Satellite Number": 460,
        "Semi-Major Axis(m)": 6980739.136638005,
        "Time(s)": 120
    },
    {
        "Altitude(m)": 610081.0506905823,
        "Argument of Periapsis(deg)": 0.0013544629687285324,
        "Eccentricity": 0.0,
        "Inclination(deg)": 60.0,
        "Latitude(deg)": -21.38588514783443,
        "Longitude(deg)": -13.512934742923438,
        "Mean Anomaly(deg)": -24.66592010899624,
        "RAAN(deg)": 99.99453936118334,
        "Satellite Name": "Test1 460",
        "Satellite Number": 460,
        "Semi-Major Axis(m)": 6980739.136638005,
        "Time(s)": 130
    },
    {
        "Altitude(m)": 609905.326463872,
        "Argument of Periapsis(deg)": 0.0014586524278614966,
        "Eccentricity": 0.0,
        "Inclination(deg)": 60.0,
        "Latitude(deg)": -20.860200203084982,
        "Longitude(deg)": -13.199359739202597,
        "Mean Anomaly(deg)": -24.0458139635344,
        "RAAN(deg)": 99.99411931204361,
        "Satellite Name": "Test1 460",
        "Satellite Number": 460,
        "Semi-Major Axis(m)": 6980739.136638005,
        "Time(s)": 140
    },
    {
        "Altitude(m)": 609731.4199449563,
        "Argument of Periapsis(deg)": 0.0015628418869944607,
        "Eccentricity": 0.0,
        "Inclination(deg)": 60.0,
        "Latitude(deg)": -20.333734774662524,
        "Longitude(deg)": -12.88823212154312,
        "Mean Anomaly(deg)": -23.42570781807256,
        "RAAN(deg)": 99.99369926290386,
        "Satellite Name": "Test1 460",
        "Satellite Number": 460,
        "Semi-Major Axis(m)": 6980739.136638005,
        "Time(s)": 150
    },
    {
        "Altitude(m)": 609559.3905470055,
        "Argument of Periapsis(deg)": 0.0016670313461274247,
        "Eccentricity": 0.0,
        "Inclination(deg)": 60.0,
        "Latitude(deg)": -19.806514374418125,
        "Longitude(deg)": -12.579471121057214,
        "Mean Anomaly(deg)": -22.80560167261072,
        "RAAN(deg)": 99.99327921376411,
        "Satellite Name": "Test1 460",
        "Satellite Number": 460,
        "Semi-Major Axis(m)": 6980739.136638005,
        "Time(s)": 160
    },
    {
        "Altitude(m)": 609389.2967064366,
        "Argument of Periapsis(deg)": 0.0017712208052603888,
        "Eccentricity": 0.0,
        "Inclination(deg)": 60.0,
        "Latitude(deg)": -19.2785640103537,
        "Longitude(deg)": -12.27299793508805,
        "Mean Anomaly(deg)": -22.18549552714893,
        "RAAN(deg)": 99.99285916462438,
        "Satellite Name": "Test1 460",
        "Satellite Number": 460,
        "Semi-Major Axis(m)": 6980739.136638005,
        "Time(s)": 170
    },
    {
        "Altitude(m)": 609221.1958572004,
        "Argument of Periapsis(deg)": 0.001875410264393353,
        "Eccentricity": 0.0,
        "Inclination(deg)": 60.0,
        "Latitude(deg)": -18.749908207431847,
        "Longitude(deg)": -11.96873517131453,
        "Mean Anomaly(deg)": -21.565389381687037,
        "RAAN(deg)": 99.99243911548463,
        "Satellite Name": "Test1 460",
        "Satellite Number": 460,
        "Semi-Major Axis(m)": 6980739.136638005,
        "Time(s)": 180
    },
    {
        "Altitude(m)": 609055.1444056352,
        "Argument of Periapsis(deg)": 0.0019795997235263173,
        "Eccentricity": 0.0,
        "Inclination(deg)": 60.0,
        "Latitude(deg)": -18.220571027718208,
        "Longitude(deg)": -11.666606292839926,
        "Mean Anomaly(deg)": -20.945283236225247,
        "RAAN(deg)": 99.9920190663449,
        "Satellite Name": "Test1 460",
        "Satellite Number": 460,
        "Semi-Major Axis(m)": 6980739.136638005,
        "Time(s)": 190
    }
]